TANAGER-1               
1 60507U 24149AR  26169.77888330  .00003281  00000+0  71919-4 0  9990
2 60507  97.2542 264.0287 0003199 300.0531  60.0400 15.44815637103280
EAGLEEYE                
1 60508U 24149AS  26170.52683250  .00086724  00000+0  67999-3 0  9995
2 60508  97.3717 263.9946 0004467 231.0484 129.0381 15.71287160103306
FLOCK 4BE-29            
1 60509U 24149AT  26170.51285962  .00014106  00000+0  30912-3 0  9993
2 60509  97.3809 256.4208 0001409 275.8562  84.2526 15.44206099102778
TRANSPORTER-11 OBJECT AU
1 60510U 24149AU  26170.20186193  .00011851  00000+0  29639-3 0  9995
2 60510  97.3729 253.9385 0002250 277.2370  82.8620 15.40268795102627
FLOCK 4BE-2             
1 60511U 24149AV  26170.57241383  .00048880  00000+0  78363-3 0  9999
2 60511  97.3831 257.9355 0003616 244.2415 115.8465 15.52931677102874
FLOCK 4BE-13            
1 60512U 24149AW  26170.49222302  .00012023  00000+0  28455-3 0  9998
2 60512  97.3718 254.9274 0003055 248.8903 111.2018 15.41938806102722
FLOCK 4BE-27            
1 60513U 24149AX  26170.47687350  .00007352  00000+0  22253-3 0  9994
2 60513  97.3821 252.3291 0002385 303.5812  56.5203 15.34478372102492
FLOCK 4BE-9             
1 60514U 24149AY  26170.23322119  .00013356  00000+0  32745-3 0  9996
2 60514  97.3791 254.5247 0001401 278.5308  81.5780 15.40847332102630
FLOCK 4BE-6             
1 60516U 24149BA  26170.52358630  .00011687  00000+0  29853-3 0  9998
2 60516  97.3788 254.1720 0002114 277.8584  82.2422 15.39628591102633
FLOCK 4BE-14            
1 60517U 24149BB  26170.18050769  .00013702  00000+0  33366-3 0  9997
2 60517  97.3694 253.9640 0003056 280.1184  79.9718 15.41043574102633
FLOCK 4BE-1             
1 60518U 24149BC  26170.19435324  .00015046  00000+0  34707-3 0  9996
2 60518  97.3782 255.2628 0002877 279.0068  81.0854 15.42656347102680
FLOCK 4BE-28            
1 60519U 24149BD  26170.20556683  .00015526  00000+0  33129-3 0  9991
2 60519  97.3747 256.0043 0002993 271.4829  88.6077 15.44970196102753
IPERDRONE.0             
1 60520U 24149BE  26170.22249713  .00070674  00000+0  66455-3 0  9991
2 60520  97.3772 263.5348 0003796 218.9658 141.1330 15.66905166103232
TRANSPORTER-11 OBJECT BF
1 60521U 24149BF  26170.52792340  .00226999  00000+0  91628-3 0  9997
2 60521  97.3756 266.6504 0006502 231.5288 128.5400 15.85749885103457
CONNECTA IOT-2          
1 60522U 24149BG  26170.47816297  .00003756  00000+0  15803-3 0  9995
2 60522  97.3837 248.5893 0005330 328.1443  31.9472 15.23991259102240
CONNECTA IOT-4          
1 60524U 24149BJ  26170.47830795  .00017557  00000+0  41053-3 0  9996
2 60524  97.3794 254.8756 0004062 273.5383  86.5399 15.42211784102680
ORESAT0.5               
1 60525U 24149BK  26170.51441942  .00016823  00000+0  35647-3 0  9991
2 60525  97.3714 256.5503 0004174 261.4457  98.6319 15.45152489102836
DEIMOS                  
1 60526U 24149BL  26170.48312514  .00016304  00000+0  35577-3 0  9996
2 60526  97.3779 256.6579 0004073 270.2699  89.8082 15.44291258102809
CUAVA-2                 
1 60527U 24149BM  26170.49335261  .00010290  00000+0  29417-3 0  9996
2 60527  97.3722 252.0164 0005206 283.9365  76.1300 15.36161054102520
ERNST                   
1 60528U 24149BN  26170.51013784  .00011422  00000+0  29530-3 0  9997
2 60528  97.3807 254.2474 0004397 286.7715  73.3048 15.39258632102635
TORO                    
1 60530U 24149BQ  26170.44638711  .00001007  00000+0  93832-4 0  9990
2 60530  97.6789 245.0721 0001373  79.9988 280.1388 14.96432245100299
HYPSO-2                 
1 60531U 24149BR  26170.47061491  .00001899  00000+0  16242-3 0  9997
2 60531  97.6806 246.6983 0000216  67.9854 292.1391 14.98796524100394
LEMU NGE                
1 60532U 24149BS  26170.46089126  .00001319  00000+0  12593-3 0  9994
2 60532  97.6843 245.3746 0001911  61.0679 299.0734 14.94961192100299
LEMUR-2-STELLA          
1 60533U 24149BT  26170.46449551  .00009045  00000+0  53259-3 0  9995
2 60533  97.6731 252.9295 0001509  96.2174 263.9228 15.11849041100849
SATELIOT_2              
1 60534U 24149BU  26170.43364361  .00001787  00000+0  16286-3 0  9992
2 60534  97.6834 245.3486 0002140  91.1496 268.9970 14.96371625100305
NIGHTJAR                
1 60535U 24149BV  26170.46172660  .00001990  00000+0  16899-3 0  9991
2 60535  97.6835 247.1375 0001005  81.4964 278.6372 14.99025985143214
LEMUR-2-MARHISYAM       
1 60536U 24149BW  26170.51185088  .00009294  00000+0  55547-3 0  9994
2 60536  97.6878 253.4282 0003266 113.7895 246.3677 15.11300051100838
SATELIOT_4              
1 60537U 24149BX  26170.44400590  .00001003  00000+0  92908-4 0  9998
2 60537  97.6741 244.8851 0003056  53.8232 306.3272 14.96677046100314
PICO-02A021             
1 60538U 24149BY  26170.16334308  .00004590  00000+0  34314-3 0  9991
2 60538  97.6753 248.9772 0004796  22.7959 337.3478 15.03270664100033
ICEYE-X43               
1 60539U 24149BZ  26170.49749578  .00003241  00000+0  26777-3 0  9993
2 60539  97.6790 247.4303 0008291  78.1656 282.0497 14.99631053100463
