OBJECT_NAME,OBJECT_ID,EPOCH,MEAN_MOTION,ECCENTRICITY,INCLINATION,RA_OF_ASC_NODE,ARG_OF_PERICENTER,MEAN_ANOMALY,EPHEMERIS_TYPE,CLASSIFICATION_TYPE,NORAD_CAT_ID,ELEMENT_SET_NO,REV_AT_EPOCH,BSTAR,MEAN_MOTION_DOT,MEAN_MOTION_DDOT
TANAGER-1,2024-149AR,2026-06-18T18:41:35.517120,15.44815637,.0003199,97.2542,264.0287,300.0531,60.0400,0,U,60507,999,10328,.71918609E-4,.3281E-4,0
EAGLEEYE,2024-149AS,2026-06-19T12:38:38.328000,15.71287160,.00044676,97.3717,263.9946,231.0484,129.0381,0,U,60508,999,10330,.67998878E-3,.86724E-3,0
FLOCK 4BE-29,2024-149AT,2026-06-19T12:18:31.071168,15.44206099,.00014097,97.3809,256.4208,275.8562,84.2526,0,U,60509,999,10277,.30911612E-3,.14106E-3,0
TRANSPORTER-11 OBJECT AU,2024-149AU,2026-06-19T04:50:40.870752,15.40268795,.00022509,97.3729,253.9385,277.2370,82.8620,0,U,60510,999,10262,.29639366E-3,.11851E-3,0
FLOCK 4BE-2,2024-149AV,2026-06-19T13:44:16.554912,15.52931677,.00036164,97.3831,257.9355,244.2415,115.8465,0,U,60511,999,10287,.78363143E-3,.4888E-3,0
FLOCK 4BE-13,2024-149AW,2026-06-19T11:48:48.068928,15.41938806,.00030555,97.3718,254.9274,248.8903,111.2018,0,U,60512,999,10272,.28455315E-3,.12023E-3,0
FLOCK 4BE-27,2024-149AX,2026-06-19T11:26:41.870400,15.34478372,.00023856,97.3821,252.3291,303.5812,56.5203,0,U,60513,999,10249,.22252554E-3,.7352E-4,0
FLOCK 4BE-9,2024-149AY,2026-06-19T05:35:50.310816,15.40847332,.00014011,97.3791,254.5247,278.5308,81.5780,0,U,60514,999,10263,.32745494E-3,.13356E-3,0
FLOCK 4BE-6,2024-149BA,2026-06-19T12:33:57.856320,15.39628591,.0002114,97.3788,254.1720,277.8584,82.2422,0,U,60516,999,10263,.29853268E-3,.11687E-3,0
FLOCK 4BE-14,2024-149BB,2026-06-19T04:19:55.864416,15.41043574,.00030561,97.3694,253.9640,280.1184,79.9718,0,U,60517,999,10263,.333657E-3,.13702E-3,0
FLOCK 4BE-1,2024-149BC,2026-06-19T04:39:52.119936,15.42656347,.00028775,97.3782,255.2628,279.0068,81.0854,0,U,60518,999,10268,.34707274E-3,.15046E-3,0
FLOCK 4BE-28,2024-149BD,2026-06-19T04:56:00.974112,15.44970196,.00029933,97.3747,256.0043,271.4829,88.6077,0,U,60519,999,10275,.33129431E-3,.15526E-3,0
IPERDRONE.0,2024-149BE,2026-06-19T05:20:23.752032,15.66905166,.00037965,97.3772,263.5348,218.9658,141.1330,0,U,60520,999,10323,.66455214E-3,.70674E-3,0
TRANSPORTER-11 OBJECT BF,2024-149BF,2026-06-19T12:40:12.581760,15.85749885,.00065025,97.3756,266.6504,231.5288,128.5400,0,U,60521,999,10345,.91627576E-3,.226999E-2,0
CONNECTA IOT-2,2024-149BG,2026-06-19T11:28:33.280608,15.23991259,.000533,97.3837,248.5893,328.1443,31.9472,0,U,60522,999,10224,.15803421E-3,.3756E-4,0
CONNECTA IOT-4,2024-149BJ,2026-06-19T11:28:45.806880,15.42211784,.00040627,97.3794,254.8756,273.5383,86.5399,0,U,60524,999,10268,.41053015E-3,.17557E-3,0
ORESAT0.5,2024-149BK,2026-06-19T12:20:45.837888,15.45152489,.00041745,97.3714,256.5503,261.4457,98.6319,0,U,60525,999,10283,.3564712E-3,.16823E-3,0
DEIMOS,2024-149BL,2026-06-19T11:35:42.012096,15.44291258,.00040739,97.3779,256.6579,270.2699,89.8082,0,U,60526,999,10280,.35577122E-3,.16304E-3,0
CUAVA-2,2024-149BM,2026-06-19T11:50:25.665504,15.36161054,.00052069,97.3722,252.0164,283.9365,76.1300,0,U,60527,999,10252,.29417242E-3,.1029E-3,0
ERNST,2024-149BN,2026-06-19T12:14:35.909376,15.39258632,.00043971,97.3807,254.2474,286.7715,73.3048,0,U,60528,999,10263,.29529673E-3,.11422E-3,0
TORO,2024-149BQ,2026-06-19T10:42:47.846304,14.96432245,.00013731,97.6789,245.0721,79.9988,280.1388,0,U,60530,999,10029,.93832353E-4,.1007E-4,0
HYPSO-2,2024-149BR,2026-06-19T11:17:41.128224,14.98796524,.00002165,97.6806,246.6983,67.9854,292.1391,0,U,60531,999,10039,.16242287E-3,.1899E-4,0
LEMU NGE,2024-149BS,2026-06-19T11:03:41.004864,14.94961192,.00019119,97.6843,245.3746,61.0679,299.0734,0,U,60532,999,10029,.12592762E-3,.1319E-4,0
LEMUR-2-STELLA,2024-149BT,2026-06-19T11:08:52.412064,15.11849041,.00015091,97.6731,252.9295,96.2174,263.9228,0,U,60533,999,10084,.53259086E-3,.9045E-4,0
SATELIOT_2,2024-149BU,2026-06-19T10:24:26.807904,14.96371625,.00021402,97.6834,245.3486,91.1496,268.9970,0,U,60534,999,10030,.16286336E-3,.1787E-4,0
NIGHTJAR,2024-149BV,2026-06-19T11:04:53.178240,14.99025985,.00010051,97.6835,247.1375,81.4964,278.6372,0,U,60535,999,14321,.1689948E-3,.199E-4,0
LEMUR-2-MARHISYAM,2024-149BW,2026-06-19T12:17:03.916032,15.11300051,.00032664,97.6878,253.4282,113.7895,246.3677,0,U,60536,999,10083,.55547012E-3,.9294E-4,0
SATELIOT_4,2024-149BX,2026-06-19T10:39:22.109760,14.96677046,.00030567,97.6741,244.8851,53.8232,306.3272,0,U,60537,999,10031,.92908111E-4,.1003E-4,0
PICO-02A021,2024-149BY,2026-06-19T03:55:12.842112,15.03270664,.00047963,97.6753,248.9772,22.7959,337.3478,0,U,60538,999,10003,.34313527E-3,.459E-4,0
ICEYE-X43,2024-149BZ,2026-06-19T11:56:23.635392,14.99631053,.00082913,97.6790,247.4303,78.1656,282.0497,0,U,60539,999,10046,.26776774E-3,.3241E-4,0
